QIANFAN-60              
1 62790U 25016F   25273.45632892  .00000063  00000+0  77135-4 0  9991
2 62790  88.9732 110.6637 0014892 189.3455 170.7422 13.52524324 37336
QIANFAN-61              
1 62791U 25016G   25282.74695711  .00000048  00000+0  54891-4 0  9990
2 62791  88.9792 109.8203 0015103 161.4145 198.7560 13.50973804 38608
QIANFAN-62              
1 62792U 25016H   25282.75117412  .00000050  00000+0  58753-4 0  9993
2 62792  88.9739 109.7229 0016461 162.3292 197.8435 13.50967781 38594
QIANFAN-63              
1 62793U 25016J   25282.70170947  .00000063  00000+0  78910-4 0  9992
2 62793  88.9743 109.6752 0016366 167.7182 192.4372 13.50970689 38627
QIANFAN-64              
1 62794U 25016K   25282.74285726  .00000052  00000+0  61992-4 0  9999
2 62794  88.9731 109.6537 0014519 159.8564 200.3163 13.50972353 38627
QIANFAN-65              
1 62795U 25016L   25282.73876139  .00000053  00000+0  63256-4 0  9999
2 62795  88.9726 109.6824 0014298 161.5046 198.6628 13.50971323 38609
QIANFAN-66              
1 62796U 25016M   25282.69360219  .00000055  00000+0  66617-4 0  9998
2 62796  88.9746 109.6447 0015541 157.8454 202.3371 13.50966494 38641
QIANFAN-67              
1 62797U 25016N   25282.69758056  .00000047  00000+0  54636-4 0  9998
2 62797  88.9736 109.6761 0015305 164.5083 195.6539 13.50968039 38615
QIANFAN-68              
1 62798U 25016P   25282.68938787  .00000062  00000+0  76675-4 0  9993
2 62798  88.9742 109.7198 0015404 162.8367 197.3308 13.50970486 38593
QIANFAN-69              
1 62799U 25016Q   25282.70586961  .00000050  00000+0  58538-4 0  9995
2 62799  88.9718 109.6013 0016129 164.1236 196.0424 13.50967977 38638
QIANFAN-70              
1 62800U 25016R   25282.72220872  .00000048  00000+0  55353-4 0  9995
2 62800  88.9739 109.7246 0015993 154.5982 205.5958 13.50972974 38598
QIANFAN-71              
1 62801U 25016S   25282.71818810  .00000040  00000+0  42859-4 0  9999
2 62801  88.9733 109.7084 0015942 167.5081 192.6468 13.50971664 38598
QIANFAN-72              
1 62802U 25016T   25274.29087208  .00000084  00000+0  11481-3 0  9997
2 62802  88.9730 110.6012 0018440 200.3911 159.6505 13.49486897 37447
QIANFAN-73              
1 63159U 25046A   25282.68743512 -.00000007  00000+0 -29999-4 0  9996
2 63159  88.9805 326.6518 0013200 313.9820  46.0242 13.50967878 38763
QIANFAN-74              
1 63160U 25046B   25282.74504007  .00000141  00000+0  19912-3 0  9999
2 63160  88.9804 326.5345 0002220 101.8407 258.2993 13.50970191 38836
QIANFAN-75              
1 63161U 25046C   25282.73266961  .00000064  00000+0  81005-4 0  9990
2 63161  88.9806 326.7685 0014289 317.0184  42.9850 13.50977844 38707
QIANFAN-76              
1 63162U 25046D   25282.72859664  .00000083  00000+0  10957-3 0  9996
2 63162  88.9806 326.7498 0011874 318.7382  41.2870 13.50971792 38716
QIANFAN-77              
1 63163U 25046E   25282.68102800  .00000363  00000+0  25502-3 0  9998
2 63163  88.9802 325.2879 0012441 281.4178  78.5601 13.96066848 39511
QIANFAN-78              
1 63164U 25046F   25282.69570455  .00000147  00000+0  20952-3 0  9999
2 63164  88.9805 326.6179 0013318 320.7694  39.2491 13.50970542 38781
QIANFAN-79              
1 63165U 25046G   25282.72438050  .00000011  00000+0 -14161-5 0  9996
2 63165  88.9808 326.7195 0012991 318.6197  41.3969 13.50969330 38736
QIANFAN-80              
1 63166U 25046H   25282.74095653  .00000109  00000+0  15021-3 0  9998
2 63166  88.9805 326.4269 0012045 324.3045  35.7300 13.50970011 38890
QIANFAN-81              
1 63167U 25046J   25282.72019389  .00000098  00000+0  13381-3 0  9993
2 63167  88.9805 326.4973 0012773 310.5563  49.4475 13.50985108 38846
QIANFAN-82              
1 63168U 25046K   25282.67921344  .00000126  00000+0  17598-3 0  9997
2 63168  88.9806 326.5451 0011132 320.7442  39.2901 13.50967167 38821
QIANFAN-83              
1 63169U 25046L   25282.70881354  .00000184  00000+0  22257-3 0  9990
2 63169  88.9806 326.4441 0012104 307.1283  52.8768 13.61961332 38880
QIANFAN-84              
1 63170U 25046M   25282.70763751  .00000111  00000+0  15313-3 0  9997
2 63170  88.9806 326.6751 0013978 315.1389  44.8631 13.50985352 38756
QIANFAN-85              
1 63171U 25046N   25282.70391927  .00000174  00000+0  25154-3 0  9993
2 63171  88.9805 326.5475 0011429 319.2094  40.8201 13.50969942 38829
QIANFAN-86              
1 63172U 25046P   25282.71215473  .00000021  00000+0  13810-4 0  9994
2 63172  88.9808 326.4074 0009434 325.6898  34.3642 13.50966628 38907
QIANFAN-87              
1 63173U 25046Q   25282.68330257  .00000145  00000+0  20656-3 0  9991
2 63173  88.9804 326.5243 0010016 319.1660  40.8739 13.50979787 38837
QIANFAN-88              
1 63174U 25046R   25282.69980354  .00000165  00000+0  23670-3 0  9993
2 63174  88.9806 326.4755 0010613 328.1886  31.8623 13.50973138 38869
QIANFAN-89              
1 63175U 25046S   25282.73668103  .00000165  00000+0  23723-3 0  9993
2 63175  88.9806 326.6607 0014655 315.3621  44.6350 13.50968256 38766
QIANFAN-90              
1 63176U 25046T   25282.69135898  .00000146  00000+0  20695-3 0  9993
2 63176  88.9803 326.6378 0011563 314.6365  45.3843 13.50970279 38775
